CUTE-1.7+APD II (CO-65) 
1 32785U 08021C   26063.87073449  .00009676  00000+0  62713-3 0  9994
2 32785  97.8203  43.2559 0010226  34.2666 325.9220 15.08290642969466
SEEDS II (CO-66)        
1 32791U 08021J   26063.55452727  .00027773  00000+0  99192-3 0  9995
2 32791  97.7508  56.7719 0002344  16.0958 344.0355 15.28814513971286
YUBILEINY (RS30)        
1 32953U 08025A   26063.79866352  .00000058  00000+0  34741-3 0  9994
2 32953  82.4984  60.3662 0019330 175.9273 184.1968 12.43176137806727
KKS-1 (KISEKI)          
1 33499U 09002H   26063.80873543  .00002583  00000+0  32614-3 0  9990
2 33499  98.1190 344.6300 0006429 270.1384  89.9092 14.82807254920722
SWISSCUBE               
1 35932U 09051B   26063.68753514  .00001747  00000+0  35639-3 0  9990
2 35932  98.4103 329.7416 0006726 167.7052 192.4314 14.62243369873888
BEESAT-1                
1 35933U 09051C   26063.30148043  .00001553  00000+0  32294-3 0  9994
2 35933  98.4035 329.1997 0004935 179.8045 180.3159 14.61518970873860
ITUPSAT1                
1 35935U 09051E   26063.68070088  .00001348  00000+0  28929-3 0  9992
2 35935  98.4121 328.8845 0006918 194.4211 165.6792 14.60255563873489
XIWANG-1 (HOPE-1)       
1 36122U 09072B   26063.89703032 -.00000002  00000+0  11157-3 0  9991
2 36122 100.3908  19.4523 0008047 109.6454 250.5528 13.16436528779288
O/OREOS (USA 219)       
1 37224U 10062C   26063.37239769  .00003806  00000+0  36854-3 0  9995
2 37224  71.9723 317.6780 0016922 265.6044  94.3193 14.93247741100998
JUGNU                   
1 37839U 11058B   26063.78059343  .00000542  00000+0  14363-3 0  9991
2 37839  19.9595 222.7218 0018688   3.5238 127.1424 14.13738237744236
SRMSAT                  
1 37841U 11058D   26063.80884634  .00000500  00000+0  12763-3 0  9992
2 37841  19.9731 331.2453 0011875 135.6093 275.8240 14.11545483743058
STRAND-1                
1 39090U 13009E   26063.48172039  .00000561  00000+0  20324-3 0  9990
2 39090  98.3882 246.3029 0008692 176.9706 183.1535 14.37089808682020
ZACUBE-1 (TSHEPISOSAT)  
1 39417U 13066B   26063.86135088  .00007114  00000+0  56258-3 0  9997
2 39417  97.8184  25.6614 0041804 236.2610 123.4626 15.00265604665082
GOMX-1                  
1 39430U 13066Q   26063.85280039  .00002767  00000+0  42115-3 0  9994
2 39430  97.6569 270.8598 0130548  52.9165 308.3893 14.69076086654591
CUBEBUG-2 (LO-74)       
1 39440U 13066AA  26063.80491366  .00009013  00000+0  84552-3 0  9999
2 39440  97.8816  12.4703 0059286  15.3033 344.9962 14.92882320661417
FUNCUBE-1 (AO-73)       
1 39444U 13066AE  26063.39850331  .00015175  00000+0  97977-3 0  9999
2 39444  97.8175  32.8468 0036706 197.5791 162.4169 15.07790976663864
UWE-3                   
1 39446U 13066AG  26063.64687173  .00007547  00000+0  66020-3 0  9990
2 39446  97.8595  19.1594 0048758 309.8470  49.8465 14.96109228661947
